04644   12.4   0.15 K194R  11.56823  207.01854   48.19473   14.12954  0.1448131  0.23412244   2.6071980  0 MPO473830  1795  22 1951-2019 0.37 M-v 38h Williams   0000   (4644) Oumu               20190508
04645   12.7   0.15 K194R  99.50389  293.05201  179.74959    9.45667  0.1335526  0.22553637   2.6729550  0 MPO473830  1997  24 1931-2019 0.41 M-v 38h MPCLINUX   0000   (4645) Tentaikojo         20190801
04646   14.3   0.15 K194R 196.21294  351.52925  332.04437    1.90847  0.1908402  0.26014513   2.4302946  0 MPO473830  1806  23 1949-2019 0.42 M-v 38h MPCLINUX   0000   (4646) Kwee               20190603
04647   12.8   0.15 K194R 320.82201  128.10172  180.55392    6.93386  0.2607045  0.20024294   2.8935517  0 MPO473830  1672  25 1931-2019 0.46 M-v 38h Williams   0000   (4647) Syuji              20190511
04648   13.3   0.15 K194R 184.44802  123.45249  319.58208    9.79552  0.1851998  0.26575359   2.3959805  0 MPO473830  1369  23 1931-2019 0.41 M-v 38h MPCLINUX   0000   (4648) Tirion             20190707
04649   11.4   0.15 K194R  90.66480  313.65722   80.82955   15.42275  0.1219994  0.21697358   2.7428253  0 MPO473830  2147  25 1931-2019 0.36 M-v 38h MPCLINUX   0000   (4649) Sumoto             20190625
04650   13.5   0.15 K194R 155.37022   91.86526  306.78776    4.74379  0.1482062  0.29464371   2.2366838  0 MPO473830  2169  23 1930-2019 0.42 M-v 38h MPCLINUX   0000   (4650) Mori               20190726
04651   13.0   0.15 K194R 269.36238  240.04070  181.63691    1.73244  0.0593450  0.20522904   2.8464933  0 MPO473830  1892  26 1955-2018 0.46 M-v 38h Williams   0000   (4651) Wongkwancheng      20180908
04652   13.5   0.15 K194R  19.73376   51.04321  327.73978   11.04687  0.3134470  0.22932213   2.6434559  0 MPO467685  1684  20 1975-2019 0.43 M-v 38h MPCLINUX   0000   (4652) Iannini            20190128
04653   12.7   0.15 K194R 238.69319   55.09362  204.79799   11.25544  0.1737851  0.22395927   2.6854888  0 MPO467685  1963  23 1976-2019 0.43 M-v 38h MPCLINUX   0000   (4653) Tommaso            20190512
04654   14.0   0.15 K194R 338.99479  245.58337   23.87609    5.52992  0.1646106  0.30099671   2.2050996  0 MPO473830  1774  25 1951-2019 0.45 M-v 38h MPCLINUX   0000   (4654) Gor'kavyj          20190729
04655   13.3   0.15 K194R 357.79931   47.29483  313.81989    1.91554  0.1899723  0.29122721   2.2541428  0 MPO473830  1995  22 1953-2018 0.43 M-v 38h Williams   0000   (4655) Marjoriika         20180831
04656   13.4   0.15 K194R 152.74416   47.68448    6.35380    1.71860  0.0740099  0.20466216   2.8517471  0 MPO473830  1673  25 1977-2019 0.43 M-v 38h MPCLINUX   0000   (4656) Huchra             20190724
04657   12.7   0.15 K194R  61.27388   39.02570  358.18480    0.28107  0.1807430  0.18033169   3.1028064  0 MPO467685  1848  28 1955-2019 0.44 M-v 38h MPCLINUX   0000   (4657) Lopez              20190512
04658   12.9   0.15 K194R  32.51658  210.41651  153.38588    1.16629  0.2034198  0.17632243   3.1496648  0 MPO467685  2025  27 1950-2019 0.46 M-v 38h MPCLINUX   0000   (4658) Gavrilov           20190204
04659   14.4   0.15 K194R 295.81961    5.45564   19.55102    2.46274  0.2232698  0.27007242   2.3703686  0 MPO473830  1263  20 1977-2018 0.48 M-v 38h Williams   0000   (4659) Roddenberry        20180715
04660   18.2   0.15 K194R 184.89202  158.06470  314.40867    1.43200  0.3601766  0.54258219   1.4887634  0 MPO473830   510  15 1981-2017 0.53 M-v 3Eh Williams   9803   (4660) Nereus             20170726
04661   13.4   0.15 K194R 205.08826  286.13331  102.50331    4.70455  0.1602884  0.25930654   2.4355314  0 MPO473830  1794  24 1963-2019 0.46 M-v 38h Williams   0000   (4661) Yebes              20190512
04662   13.2   0.15 K194R 222.53515  356.41412  158.08286    6.07698  0.1101011  0.21121073   2.7924928  0 MPO473830  1838  22 1970-2019 0.45 M-v 38h Williams   0000   (4662) Runk               20190108
04663   11.6   0.15 K194R   0.85939   11.77187  353.09822   14.90025  0.0612769  0.17138949   3.2098145  0 MPO473830  1745  23 1955-2019 0.41 M-v 38h Williams   0000   (4663) Falta              20190108
04664   12.5   0.15 K194R 308.20724    1.73093  335.03373    1.49416  0.0678658  0.20112886   2.8850485  0 MPO473830  2147  26 1951-2019 0.43 M-v 38h Williams   0000   (4664) Hanner             20190512
04665   12.5   0.15 K194R 243.35561   76.73203  236.79335    7.35707  0.2051629  0.19317399   2.9637185  0 MPO473830  1825  23 1985-2019 0.46 M-v 38h MPCLINUX   0000   (4665) Muinonen           20190726
04666   12.9   0.15 K194R  62.34298   41.93581  230.22446   24.49868  0.2334733  0.27533133   2.3400886  0 MPO473830  1397  21 1986-2018 0.39 M-v 38h Williams   0007   (4666) Dietz              20181217
04667   13.2   0.15 K194R 171.00053   24.32536    6.00517   11.22308  0.0908081  0.22650623   2.6653195  0 MPO473830  1660  22 1971-2019 0.44 M-v 38h MPCLINUX   0000   (4667) Robbiesh           20190720
04668   12.2   0.15 K194R 169.57923   69.74650  308.90251    9.23347  0.1223432  0.18859594   3.0114882  0 MPO473830  1823  23 1953-2019 0.44 M-v 38h MPCLINUX   0000   (4668) Rayjay             20190630
04669   13.7   0.15 K194R 255.58249  261.82116  104.36902    4.48639  0.1890875  0.30214401   2.1995140  0 MPO473830  1680  21 1982-2019 0.46 M-v 38h Williams   0000   (4669) Hoder              20190508
04670   13.8   0.15 K194R  96.33081  181.51189  314.85868    5.01492  0.0921368  0.29371816   2.2413801  0 MPO473830  1510  19 1987-2019 0.41 M-v 38h Williams   0000   (4670) Yoshinogawa        20190410
04671   13.2   0.15 K194R 328.27340  332.43480  349.27619    4.81304  0.0620118  0.26743258   2.3859418  0 MPO473830  1683  23 1955-2019 0.46 M-v 38h Williams   0000   (4671) Drtikol            20190506
04672   11.5   0.15 K194R 114.47949  176.14327   91.65675   15.52951  0.0485435  0.17317606   3.1877002  0 MPO473830  1742  25 1971-2019 0.40 M-v 38h MPCLINUX   0000   (4672) Takuboku           20190809
04673   11.8   0.15 K194R 330.60833  344.64648  104.38601   16.20174  0.0568697  0.24194010   2.5507280  0 MPO467685  1900  24 1959-2019 0.38 M-v 38h MPCLINUX   0000   (4673) Bortle             20190226
04674   13.9   0.15 K194R  30.07792  239.56395  232.93490   19.44398  0.0703149  0.38895666   1.8586684  0 MPO473830  1540  20 1985-2019 0.39 M-v 38h MPCLINUX   0006   (4674) Pauling            20190523
04675   13.1   0.15 K194R 355.21637  294.39074  294.47831    4.47130  0.1752815  0.26320144   2.4114442  0 MPO473831  1859  28 1955-2019 0.45 M-v 38h Williams   0000   (4675) Ohboke             20190510
04676   13.0   0.15 K194R  12.09072  351.30349  222.11522    8.98816  0.0771301  0.26470215   2.4023212  0 MPO473831  1761  24 1952-2019 0.44 M-v 38h Williams   0000   (4676) Uedaseiji          20190513
04677   12.8   0.15 K194R   7.48047   54.40028   11.96940    0.48139  0.1945125  0.17776932   3.1325511  0 MPO467685  1952  24 1954-2019 0.46 M-v 38h MPCLINUX   0000   (4677) Hiroshi            20190319
04678   13.6   0.15 K194R 134.05935  323.35664   30.45698    3.74210  0.2142569  0.28922318   2.2645434  0 MPO473831  1977  23 1953-2019 0.43 M-v 38h MPCLINUX   0000   (4678) Ninian             20190525
04679   12.1   0.15 K194R  98.58867  259.75684  178.74939   17.37461  0.0438028  0.18593027   3.0402034  0 MPO473831  2061  27 1969-2019 0.42 M-v 38h MPCLINUX   0000   (4679) Sybil              20190724
04680   13.9   0.15 K194R  33.24508  116.07087  302.39432    4.62247  0.1713627  0.28083505   2.3094143  0 MPO467685  1798  21 1937-2019 0.45 M-v 38h MPCLINUX   0000   (4680) Lohrmann           20190424
04681   12.1   0.15 K194R 182.59233  318.81470   37.83929   11.52323  0.1268894  0.18826165   3.0150520  0 MPO473831  2074  23 1969-2019 0.41 M-v 38h MPCLINUX   0000   (4681) Ermak              20190718
04682   14.3   0.15 K194R  94.96177   88.81573  321.28212    3.82169  0.1960847  0.28817032   2.2700559  0 MPO473831  1700  19 1932-2019 0.42 M-v 38h MPCLINUX   0000   (4682) Bykov              20190620
04683   12.2   0.15 K194R 357.27326  297.56609  164.38780    1.22516  0.1605014  0.17944980   3.1129638  0 MPO467685  2268  30 1935-2019 0.45 M-v 38h MPCLINUX   0000   (4683) Veratar            20190430
04684   13.2   0.15 K194R 332.33736   50.61000  220.25816    5.27492  0.1100020  0.26531806   2.3986019  0 MPO473831  1937  23 1978-2019 0.45 M-v 38h Williams   0000   (4684) Bendjoya           20190508
04685   12.3   0.15 K194R  31.60091   16.90215   47.88026    1.62214  0.1798717  0.17459644   3.1703883  0 MPO473831  2087  28 1954-2019 0.47 M-v 38h MPCLINUX   0000   (4685) Karetnikov         20190514
04686   13.5   0.15 K194R 328.18186  115.49175  237.01259    4.46862  0.1581832  0.27093678   2.3653245  0 MPO473831  1645  22 1979-2019 0.45 M-v 38h Williams   0000   (4686) Maisica            20190509
04687   12.7   0.15 K194R  31.66498  174.65091  267.85760    3.88668  0.1499279  0.17986243   3.1082009  0 MPO473831  1645  26 1978-2019 0.45 M-v 38h MPCLINUX   0000   (4687) Brunsandrej        20190514
04688   19.4   0.15 K194R 174.59253  213.65306  241.30969    6.37880  0.5162118  0.29489641   2.2354059  1 MPO309185   193   4 1980-2011 0.63 M-h 3Eh MPCLINUX   4804   (4688) 1980 WF            20110501
04689   13.2   0.15 K194R 356.41518   31.50132  105.70424    5.16090  0.0713878  0.28497631   2.2869862  0 MPO473831  2105  23 1964-2019 0.44 M-v 38h MPCLINUX   0000   (4689) Donn               20190522
04690   13.6   0.15 K194R 221.63412  105.54264  295.77572   16.91140  0.1085393  0.36535982   1.9378591  0 MPO473831  1162  19 1983-2019 0.42 M-v 38h Williams   0006   (4690) Strasbourg         20190820
04691   13.5   0.15 K194R 182.98977  299.09861   42.80531    5.87518  0.1949390  0.28935240   2.2638692  0 MPO473831  2247  23 1973-2019 0.41 M-v 38h MPCLINUX   0000   (4691) Toyen              20190625
04692   13.5   0.15 K194R 175.49562  322.68928   65.48251    3.70254  0.1484675  0.29086016   2.2560388  0 MPO473831  2298  23 1973-2019 0.41 M-v 38h MPCLINUX   0000   (4692) SIMBAD             20190801
